COSMOS 1892             
1 18421U 87088A   25307.67401245  .00264020  24911-4  75742-3 0  9996
2 18421  82.4682  87.7264 0005236 304.3326  55.7452 15.93070818 85068
SL-14 R/B               
1 18749U 88001B   25308.11169285  .00000619  00000+0  69118-4 0  9991
2 18749  82.5107 313.4879 0016613 296.0495  63.9010 14.85359952 23387
COSMOS 1933             
1 18958U 88020A   25308.16247726  .00004612  00000+0  23429-3 0  9997
2 18958  82.5166  14.9795 0002895 277.3513  82.7391 15.16653260 31197
SL-3 R/B                
1 19046U 88032B   25308.11316172  .00006576  00000+0  32284-3 0  9996
2 19046  97.5036 287.1255 0025595 314.8831  45.0324 15.18132970 33041
SL-16 R/B               
1 19120U 88039B   25308.13271111  .00000007  00000+0  26147-4 0  9996
2 19120  71.0149 334.0322 0021658 179.0043 181.1129 14.19586243940560
COSMOS 1953             
1 19210U 88050A   25308.03193167  .00006180  00000+0  23662-3 0  9998
2 19210  82.5057 284.4067 0011121 196.1123 163.9763 15.26301758 18600
SL-8 R/B                
1 19257U 88053B   25308.15957671  .00000325  00000+0  11384-3 0  9996
2 19257  74.0481 343.8271 0020424 199.3063 216.9053 14.38823589958549
COSMOS 1975             
1 19573U 88093A   25308.09378899  .00012419  00000+0  48767-3 0  9995
2 19573  82.5215 243.4859 0009355 251.5261 108.4960 15.25546343   241
SL-14 R/B               
1 19574U 88093B   25308.12214247  .00000539  00000+0  59387-4 0  9997
2 19574  82.5307 159.9069 0022343  93.2470  24.6900 14.85489803982393
SL-16 R/B               
1 19650U 88102B   25307.60867372 -.00000020  00000+0  13869-4 0  9999
2 19650  71.0008  56.7754 0015252 211.2542 148.7676 14.16130881909049
INTERCOSMOS 24          
1 20261U 89080A   25308.13000493  .00000681  00000+0  20088-3 0  9999
2 20261  82.6088 186.0582 1187756 224.1011 125.9208 12.59353491650999
SL-14 R/B               
1 20262U 89080C   25308.09867014  .00000275  00000+0  73106-4 0  9994
2 20262  82.5917 253.8179 1231474 111.8518 261.7976 12.50372374644453
