CCSDS_OMM_VERS = 2.0
CREATION_DATE  = 
ORIGINATOR     = 

OBJECT_NAME    = COSMOS 1892
OBJECT_ID      = 1987-088A
CENTER_NAME    = EARTH
REF_FRAME      = TEME
TIME_SYSTEM    = UTC
MEAN_ELEMENT_THEORY = SGP/SGP4

EPOCH          = 2025-11-03T16:10:34.675680
MEAN_MOTION    = 15.93070818
ECCENTRICITY   = .00052365
INCLINATION    = 82.4682
RA_OF_ASC_NODE = 87.7264
ARG_OF_PERICENTER = 304.3326
MEAN_ANOMALY   = 55.7452

EPHEMERIS_TYPE = 0
CLASSIFICATION_TYPE = U
NORAD_CAT_ID   = 18421
ELEMENT_SET_NO = 999
REV_AT_EPOCH   = 8506
BSTAR          = .75742375E-3
MEAN_MOTION_DOT = .26402E-2
MEAN_MOTION_DDOT = .24910505E-4

CCSDS_OMM_VERS = 2.0
CREATION_DATE  = 
ORIGINATOR     = 

OBJECT_NAME    = SL-14 R/B
OBJECT_ID      = 1988-001B
CENTER_NAME    = EARTH
REF_FRAME      = TEME
TIME_SYSTEM    = UTC
MEAN_ELEMENT_THEORY = SGP/SGP4

EPOCH          = 2025-11-04T02:40:50.262240
MEAN_MOTION    = 14.85359952
ECCENTRICITY   = .0016613
INCLINATION    = 82.5107
RA_OF_ASC_NODE = 313.4879
ARG_OF_PERICENTER = 296.0495
MEAN_ANOMALY   = 63.9010

EPHEMERIS_TYPE = 0
CLASSIFICATION_TYPE = U
NORAD_CAT_ID   = 18749
ELEMENT_SET_NO = 999
REV_AT_EPOCH   = 2338
BSTAR          = .69118E-4
MEAN_MOTION_DOT = .619E-5
MEAN_MOTION_DDOT = 0

CCSDS_OMM_VERS = 2.0
CREATION_DATE  = 
ORIGINATOR     = 

OBJECT_NAME    = COSMOS 1933
OBJECT_ID      = 1988-020A
CENTER_NAME    = EARTH
REF_FRAME      = TEME
TIME_SYSTEM    = UTC
MEAN_ELEMENT_THEORY = SGP/SGP4

EPOCH          = 2025-11-04T03:53:58.035264
MEAN_MOTION    = 15.16653260
ECCENTRICITY   = .0002895
INCLINATION    = 82.5166
RA_OF_ASC_NODE = 14.9795
ARG_OF_PERICENTER = 277.3513
MEAN_ANOMALY   = 82.7391

EPHEMERIS_TYPE = 0
CLASSIFICATION_TYPE = U
NORAD_CAT_ID   = 18958
ELEMENT_SET_NO = 999
REV_AT_EPOCH   = 3119
BSTAR          = .23429E-3
MEAN_MOTION_DOT = .4612E-4
MEAN_MOTION_DDOT = 0

CCSDS_OMM_VERS = 2.0
CREATION_DATE  = 
ORIGINATOR     = 

OBJECT_NAME    = SL-3 R/B
OBJECT_ID      = 1988-032B
CENTER_NAME    = EARTH
REF_FRAME      = TEME
TIME_SYSTEM    = UTC
MEAN_ELEMENT_THEORY = SGP/SGP4

EPOCH          = 2025-11-04T02:42:57.172608
MEAN_MOTION    = 15.18132970
ECCENTRICITY   = .0025595
INCLINATION    = 97.5036
RA_OF_ASC_NODE = 287.1255
ARG_OF_PERICENTER = 314.8831
MEAN_ANOMALY   = 45.0324

EPHEMERIS_TYPE = 0
CLASSIFICATION_TYPE = U
NORAD_CAT_ID   = 19046
ELEMENT_SET_NO = 999
REV_AT_EPOCH   = 3304
BSTAR          = .32284E-3
MEAN_MOTION_DOT = .6576E-4
MEAN_MOTION_DDOT = 0

CCSDS_OMM_VERS = 2.0
CREATION_DATE  = 
ORIGINATOR     = 

OBJECT_NAME    = SL-16 R/B
OBJECT_ID      = 1988-039B
CENTER_NAME    = EARTH
REF_FRAME      = TEME
TIME_SYSTEM    = UTC
MEAN_ELEMENT_THEORY = SGP/SGP4

EPOCH          = 2025-11-04T03:11:06.239904
MEAN_MOTION    = 14.19586243
ECCENTRICITY   = .0021658
INCLINATION    = 71.0149
RA_OF_ASC_NODE = 334.0322
ARG_OF_PERICENTER = 179.0043
MEAN_ANOMALY   = 181.1129

EPHEMERIS_TYPE = 0
CLASSIFICATION_TYPE = U
NORAD_CAT_ID   = 19120
ELEMENT_SET_NO = 999
REV_AT_EPOCH   = 94056
BSTAR          = .26147E-4
MEAN_MOTION_DOT = .7E-7
MEAN_MOTION_DDOT = 0

CCSDS_OMM_VERS = 2.0
CREATION_DATE  = 
ORIGINATOR     = 

OBJECT_NAME    = COSMOS 1953
OBJECT_ID      = 1988-050A
CENTER_NAME    = EARTH
REF_FRAME      = TEME
TIME_SYSTEM    = UTC
MEAN_ELEMENT_THEORY = SGP/SGP4

EPOCH          = 2025-11-04T00:45:58.896288
MEAN_MOTION    = 15.26301758
ECCENTRICITY   = .0011121
INCLINATION    = 82.5057
RA_OF_ASC_NODE = 284.4067
ARG_OF_PERICENTER = 196.1123
MEAN_ANOMALY   = 163.9763

EPHEMERIS_TYPE = 0
CLASSIFICATION_TYPE = U
NORAD_CAT_ID   = 19210
ELEMENT_SET_NO = 999
REV_AT_EPOCH   = 1860
BSTAR          = .23662E-3
MEAN_MOTION_DOT = .618E-4
MEAN_MOTION_DDOT = 0

CCSDS_OMM_VERS = 2.0
CREATION_DATE  = 
ORIGINATOR     = 

OBJECT_NAME    = SL-8 R/B
OBJECT_ID      = 1988-053B
CENTER_NAME    = EARTH
REF_FRAME      = TEME
TIME_SYSTEM    = UTC
MEAN_ELEMENT_THEORY = SGP/SGP4

EPOCH          = 2025-11-04T03:49:47.427744
MEAN_MOTION    = 14.38823589
ECCENTRICITY   = .0020424
INCLINATION    = 74.0481
RA_OF_ASC_NODE = 343.8271
ARG_OF_PERICENTER = 199.3063
MEAN_ANOMALY   = 216.9053

EPHEMERIS_TYPE = 0
CLASSIFICATION_TYPE = U
NORAD_CAT_ID   = 19257
ELEMENT_SET_NO = 999
REV_AT_EPOCH   = 95854
BSTAR          = .11384E-3
MEAN_MOTION_DOT = .325E-5
MEAN_MOTION_DDOT = 0

CCSDS_OMM_VERS = 2.0
CREATION_DATE  = 
ORIGINATOR     = 

OBJECT_NAME    = COSMOS 1975
OBJECT_ID      = 1988-093A
CENTER_NAME    = EARTH
REF_FRAME      = TEME
TIME_SYSTEM    = UTC
MEAN_ELEMENT_THEORY = SGP/SGP4

EPOCH          = 2025-11-04T02:15:03.368736
MEAN_MOTION    = 15.25546343
ECCENTRICITY   = .0009355
INCLINATION    = 82.5215
RA_OF_ASC_NODE = 243.4859
ARG_OF_PERICENTER = 251.5261
MEAN_ANOMALY   = 108.4960

EPHEMERIS_TYPE = 0
CLASSIFICATION_TYPE = U
NORAD_CAT_ID   = 19573
ELEMENT_SET_NO = 999
REV_AT_EPOCH   = 24
BSTAR          = .48767E-3
MEAN_MOTION_DOT = .12419E-3
MEAN_MOTION_DDOT = 0

CCSDS_OMM_VERS = 2.0
CREATION_DATE  = 
ORIGINATOR     = 

OBJECT_NAME    = SL-14 R/B
OBJECT_ID      = 1988-093B
CENTER_NAME    = EARTH
REF_FRAME      = TEME
TIME_SYSTEM    = UTC
MEAN_ELEMENT_THEORY = SGP/SGP4

EPOCH          = 2025-11-04T02:55:53.109408
MEAN_MOTION    = 14.85489803
ECCENTRICITY   = .0022343
INCLINATION    = 82.5307
RA_OF_ASC_NODE = 159.9069
ARG_OF_PERICENTER = 93.2470
MEAN_ANOMALY   = 24.6900

EPHEMERIS_TYPE = 0
CLASSIFICATION_TYPE = U
NORAD_CAT_ID   = 19574
ELEMENT_SET_NO = 999
REV_AT_EPOCH   = 98239
BSTAR          = .59387E-4
MEAN_MOTION_DOT = .539E-5
MEAN_MOTION_DDOT = 0

CCSDS_OMM_VERS = 2.0
CREATION_DATE  = 
ORIGINATOR     = 

OBJECT_NAME    = SL-16 R/B
OBJECT_ID      = 1988-102B
CENTER_NAME    = EARTH
REF_FRAME      = TEME
TIME_SYSTEM    = UTC
MEAN_ELEMENT_THEORY = SGP/SGP4

EPOCH          = 2025-11-03T14:36:29.409408
MEAN_MOTION    = 14.16130881
ECCENTRICITY   = .00152521
INCLINATION    = 71.0008
RA_OF_ASC_NODE = 56.7754
ARG_OF_PERICENTER = 211.2542
MEAN_ANOMALY   = 148.7676

EPHEMERIS_TYPE = 0
CLASSIFICATION_TYPE = U
NORAD_CAT_ID   = 19650
ELEMENT_SET_NO = 999
REV_AT_EPOCH   = 90904
BSTAR          = .13868768E-4
MEAN_MOTION_DOT = -.2E-6
MEAN_MOTION_DDOT = 0

CCSDS_OMM_VERS = 2.0
CREATION_DATE  = 
ORIGINATOR     = 

OBJECT_NAME    = INTERCOSMOS 24
OBJECT_ID      = 1989-080A
CENTER_NAME    = EARTH
REF_FRAME      = TEME
TIME_SYSTEM    = UTC
MEAN_ELEMENT_THEORY = SGP/SGP4

EPOCH          = 2025-11-04T03:07:12.425952
MEAN_MOTION    = 12.59353491
ECCENTRICITY   = .1187756
INCLINATION    = 82.6088
RA_OF_ASC_NODE = 186.0582
ARG_OF_PERICENTER = 224.1011
MEAN_ANOMALY   = 125.9208

EPHEMERIS_TYPE = 0
CLASSIFICATION_TYPE = U
NORAD_CAT_ID   = 20261
ELEMENT_SET_NO = 999
REV_AT_EPOCH   = 65099
BSTAR          = .20088E-3
MEAN_MOTION_DOT = .681E-5
MEAN_MOTION_DDOT = 0

CCSDS_OMM_VERS = 2.0
CREATION_DATE  = 
ORIGINATOR     = 

OBJECT_NAME    = SL-14 R/B
OBJECT_ID      = 1989-080C
CENTER_NAME    = EARTH
REF_FRAME      = TEME
TIME_SYSTEM    = UTC
MEAN_ELEMENT_THEORY = SGP/SGP4

EPOCH          = 2025-11-04T02:22:05.100096
MEAN_MOTION    = 12.50372374
ECCENTRICITY   = .1231474
INCLINATION    = 82.5917
RA_OF_ASC_NODE = 253.8179
ARG_OF_PERICENTER = 111.8518
MEAN_ANOMALY   = 261.7976

EPHEMERIS_TYPE = 0
CLASSIFICATION_TYPE = U
NORAD_CAT_ID   = 20262
ELEMENT_SET_NO = 999
REV_AT_EPOCH   = 64445
BSTAR          = .73106E-4
MEAN_MOTION_DOT = .275E-5
MEAN_MOTION_DDOT = 0

